[{"OBJECT_NAME":"ONEWEB-0635","OBJECT_ID":"2023-043AG","EPOCH":"2026-04-05T04:55:25.173408","MEAN_MOTION":13.15550199,"ECCENTRICITY":0.0001716,"INCLINATION":87.8938,"RA_OF_ASC_NODE":273.7514,"ARG_OF_PERICENTER":103.5259,"MEAN_ANOMALY":256.6063,"EPHEMERIS_TYPE":0,"CLASSIFICATION_TYPE":"U","NORAD_CAT_ID":56076,"ELEMENT_SET_NO":999,"REV_AT_EPOCH":14683,"BSTAR":-0.00021576,"MEAN_MOTION_DOT":-6.8e-07,"MEAN_MOTION_DDOT":0.0},{"OBJECT_NAME":"ONEWEB-0636","OBJECT_ID":"2023-043AH","EPOCH":"2026-04-05T04:44:00.616704","MEAN_MOTION":13.15550429,"ECCENTRICITY":0.0001704,"INCLINATION":87.8932,"RA_OF_ASC_NODE":273.7651,"ARG_OF_PERICENTER":101.7617,"MEAN_ANOMALY":258.3704,"EPHEMERIS_TYPE":0,"CLASSIFICATION_TYPE":"U","NORAD_CAT_ID":56077,"ELEMENT_SET_NO":999,"REV_AT_EPOCH":14681,"BSTAR":-0.00024678,"MEAN_MOTION_DOT":-8e-07,"MEAN_MOTION_DDOT":0.0},{"OBJECT_NAME":"ONEWEB-0637","OBJECT_ID":"2023-043AJ","EPOCH":"2026-04-05T04:34:52.873536","MEAN_MOTION":13.15550912,"ECCENTRICITY":0.0001396,"INCLINATION":87.8928,"RA_OF_ASC_NODE":273.7837,"ARG_OF_PERICENTER":96.815,"MEAN_ANOMALY":263.3139,"EPHEMERIS_TYPE":0,"CLASSIFICATION_TYPE":"U","NORAD_CAT_ID":56078,"ELEMENT_SET_NO":999,"REV_AT_EPOCH":14683,"BSTAR":0.00023066999999999999,"MEAN_MOTION_DOT":1e-06,"MEAN_MOTION_DDOT":0.0},{"OBJECT_NAME":"ONEWEB-0647","OBJECT_ID":"2023-043AK","EPOCH":"2026-04-05T04:28:03.314208","MEAN_MOTION":13.15549984,"ECCENTRICITY":0.000183,"INCLINATION":87.8929,"RA_OF_ASC_NODE":273.7972,"ARG_OF_PERICENTER":98.1306,"MEAN_ANOMALY":262.0032,"EPHEMERIS_TYPE":0,"CLASSIFICATION_TYPE":"U","NORAD_CAT_ID":56079,"ELEMENT_SET_NO":999,"REV_AT_EPOCH":14682,"BSTAR":0.00018023,"MEAN_MOTION_DOT":8.1e-07,"MEAN_MOTION_DDOT":0.0},{"OBJECT_NAME":"ONEWEB-0651","OBJECT_ID":"2023-043AL","EPOCH":"2026-04-05T06:10:43.502016","MEAN_MOTION":13.15550535,"ECCENTRICITY":0.0001557,"INCLINATION":87.8925,"RA_OF_ASC_NODE":273.7774,"ARG_OF_PERICENTER":102.2326,"MEAN_ANOMALY":257.8979,"EPHEMERIS_TYPE":0,"CLASSIFICATION_TYPE":"U","NORAD_CAT_ID":56080,"ELEMENT_SET_NO":999,"REV_AT_EPOCH":14803,"BSTAR":0.0005925899999999999,"MEAN_MOTION_DOT":2.36e-06,"MEAN_MOTION_DDOT":0.0},{"OBJECT_NAME":"ONEWEB-0718","OBJECT_ID":"2023-043AM","EPOCH":"2026-04-05T06:03:52.382304","MEAN_MOTION":13.15550231,"ECCENTRICITY":0.000159,"INCLINATION":87.8923,"RA_OF_ASC_NODE":273.7589,"ARG_OF_PERICENTER":77.1082,"MEAN_ANOMALY":283.0226,"EPHEMERIS_TYPE":0,"CLASSIFICATION_TYPE":"U","NORAD_CAT_ID":56081,"ELEMENT_SET_NO":999,"REV_AT_EPOCH":14684,"BSTAR":0.00023679000000000001,"MEAN_MOTION_DOT":1.02e-06,"MEAN_MOTION_DDOT":0.0},{"OBJECT_NAME":"ONEWEB-0561","OBJECT_ID":"2023-068A","EPOCH":"2026-04-05T05:51:20.900160","MEAN_MOTION":13.20772229,"ECCENTRICITY":0.0001937,"INCLINATION":87.9141,"RA_OF_ASC_NODE":289.0069,"ARG_OF_PERICENTER":104.8078,"MEAN_ANOMALY":255.327,"EPHEMERIS_TYPE":0,"CLASSIFICATION_TYPE":"U","NORAD_CAT_ID":56710,"ELEMENT_SET_NO":999,"REV_AT_EPOCH":13987,"BSTAR":-5.5721000000000004e-05,"MEAN_MOTION_DOT":-1e-07,"MEAN_MOTION_DDOT":0.0},{"OBJECT_NAME":"ONEWEB-0668","OBJECT_ID":"2023-068B","EPOCH":"2026-04-05T04:01:42.574368","MEAN_MOTION":13.16595176,"ECCENTRICITY":0.0001254,"INCLINATION":87.9057,"RA_OF_ASC_NODE":243.2783,"ARG_OF_PERICENTER":90.1533,"MEAN_ANOMALY":269.9742,"EPHEMERIS_TYPE":0,"CLASSIFICATION_TYPE":"U","NORAD_CAT_ID":56711,"ELEMENT_SET_NO":999,"REV_AT_EPOCH":14217,"BSTAR":0.00051252,"MEAN_MOTION_DOT":2.09e-06,"MEAN_MOTION_DDOT":0.0},{"OBJECT_NAME":"ONEWEB-0676","OBJECT_ID":"2023-068C","EPOCH":"2026-04-05T02:23:38.626368","MEAN_MOTION":13.16597064,"ECCENTRICITY":0.0001723,"INCLINATION":87.9045,"RA_OF_ASC_NODE":243.3014,"ARG_OF_PERICENTER":112.215,"MEAN_ANOMALY":247.9164,"EPHEMERIS_TYPE":0,"CLASSIFICATION_TYPE":"U","NORAD_CAT_ID":56712,"ELEMENT_SET_NO":999,"REV_AT_EPOCH":14208,"BSTAR":0.00020759,"MEAN_MOTION_DOT":9.2e-07,"MEAN_MOTION_DDOT":0.0},{"OBJECT_NAME":"ONEWEB-0677","OBJECT_ID":"2023-068D","EPOCH":"2026-04-05T01:57:14.583456","MEAN_MOTION":13.20772554,"ECCENTRICITY":0.0001508,"INCLINATION":87.9138,"RA_OF_ASC_NODE":289.0317,"ARG_OF_PERICENTER":95.2915,"MEAN_ANOMALY":264.8391,"EPHEMERIS_TYPE":0,"CLASSIFICATION_TYPE":"U","NORAD_CAT_ID":56713,"ELEMENT_SET_NO":999,"REV_AT_EPOCH":14015,"BSTAR":0.00013987,"MEAN_MOTION_DOT":7e-07,"MEAN_MOTION_DDOT":0.0},{"OBJECT_NAME":"ONEWEB-0678","OBJECT_ID":"2023-068E","EPOCH":"2026-04-04T23:49:41.064960","MEAN_MOTION":13.15549991,"ECCENTRICITY":0.000201,"INCLINATION":87.8934,"RA_OF_ASC_NODE":273.7956,"ARG_OF_PERICENTER":96.4371,"MEAN_ANOMALY":263.6988,"EPHEMERIS_TYPE":0,"CLASSIFICATION_TYPE":"U","NORAD_CAT_ID":56714,"ELEMENT_SET_NO":999,"REV_AT_EPOCH":13966,"BSTAR":-0.00021975,"MEAN_MOTION_DOT":-7e-07,"MEAN_MOTION_DDOT":0.0},{"OBJECT_NAME":"ONEWEB-0679","OBJECT_ID":"2023-068F","EPOCH":"2026-04-05T03:13:49.244736","MEAN_MOTION":13.16595497,"ECCENTRICITY":0.0001229,"INCLINATION":87.9053,"RA_OF_ASC_NODE":243.2827,"ARG_OF_PERICENTER":110.7619,"MEAN_ANOMALY":249.3644,"EPHEMERIS_TYPE":0,"CLASSIFICATION_TYPE":"U","NORAD_CAT_ID":56715,"ELEMENT_SET_NO":999,"REV_AT_EPOCH":14211,"BSTAR":-2.9154999999999998e-05,"MEAN_MOTION_DOT":2e-08,"MEAN_MOTION_DDOT":0.0},{"OBJECT_NAME":"ONEWEB-0680","OBJECT_ID":"2023-068G","EPOCH":"2026-04-05T04:48:55.319328","MEAN_MOTION":13.21976499,"ECCENTRICITY":0.0001107,"INCLINATION":87.9192,"RA_OF_ASC_NODE":258.5073,"ARG_OF_PERICENTER":87.713,"MEAN_ANOMALY":272.4131,"EPHEMERIS_TYPE":0,"CLASSIFICATION_TYPE":"U","NORAD_CAT_ID":56716,"ELEMENT_SET_NO":999,"REV_AT_EPOCH":14145,"BSTAR":0.0011975,"MEAN_MOTION_DOT":5.09e-06,"MEAN_MOTION_DDOT":0.0},{"OBJECT_NAME":"ONEWEB-0681","OBJECT_ID":"2023-068H","EPOCH":"2026-04-04T22:53:09.325824","MEAN_MOTION":13.2174595,"ECCENTRICITY":0.0002002,"INCLINATION":87.9176,"RA_OF_ASC_NODE":258.5619,"ARG_OF_PERICENTER":127.9437,"MEAN_ANOMALY":232.1878,"EPHEMERIS_TYPE":0,"CLASSIFICATION_TYPE":"U","NORAD_CAT_ID":56717,"ELEMENT_SET_NO":999,"REV_AT_EPOCH":14141,"BSTAR":-0.0006986200000000001,"MEAN_MOTION_DOT":-2.75e-06,"MEAN_MOTION_DDOT":0.0},{"OBJECT_NAME":"ONEWEB-0682","OBJECT_ID":"2023-068J","EPOCH":"2026-04-05T05:52:30.504864","MEAN_MOTION":13.1556303,"ECCENTRICITY":0.0001417,"INCLINATION":87.8925,"RA_OF_ASC_NODE":273.7487,"ARG_OF_PERICENTER":85.9105,"MEAN_ANOMALY":274.2187,"EPHEMERIS_TYPE":0,"CLASSIFICATION_TYPE":"U","NORAD_CAT_ID":56718,"ELEMENT_SET_NO":999,"REV_AT_EPOCH":13986,"BSTAR":0.0032193,"MEAN_MOTION_DOT":1.225e-05,"MEAN_MOTION_DDOT":0.0},{"OBJECT_NAME":"ONEWEB-0683","OBJECT_ID":"2023-068K","EPOCH":"2026-04-05T04:37:10.950240","MEAN_MOTION":13.15549947,"ECCENTRICITY":0.000149,"INCLINATION":87.8939,"RA_OF_ASC_NODE":273.7555,"ARG_OF_PERICENTER":88.042,"MEAN_ANOMALY":272.0881,"EPHEMERIS_TYPE":0,"CLASSIFICATION_TYPE":"U","NORAD_CAT_ID":56719,"ELEMENT_SET_NO":999,"REV_AT_EPOCH":13982,"BSTAR":0.00025301,"MEAN_MOTION_DOT":1.08e-06,"MEAN_MOTION_DDOT":0.0}]