ONEWEB-0635             
1 56076U 23043AG  26095.20515247 -.00000068  00000+0 -21576-3 0  9993
2 56076  87.8938 273.7514 0001716 103.5259 256.6063 13.15550199146837
ONEWEB-0636             
1 56077U 23043AH  26095.19722936 -.00000080  00000+0 -24678-3 0  9997
2 56077  87.8932 273.7651 0001704 101.7617 258.3704 13.15550429146814
ONEWEB-0637             
1 56078U 23043AJ  26095.19088974  .00000100  00000+0  23067-3 0  9997
2 56078  87.8928 273.7837 0001396  96.8150 263.3139 13.15550912146836
ONEWEB-0647             
1 56079U 23043AK  26095.18614947  .00000081  00000+0  18023-3 0  9996
2 56079  87.8929 273.7972 0001830  98.1306 262.0032 13.15549984146823
ONEWEB-0651             
1 56080U 23043AL  26095.25744794  .00000236  00000+0  59259-3 0  9998
2 56080  87.8925 273.7774 0001557 102.2326 257.8979 13.15550535148037
ONEWEB-0718             
1 56081U 23043AM  26095.25268961  .00000102  00000+0  23679-3 0  9995
2 56081  87.8923 273.7589 0001590  77.1082 283.0226 13.15550231146842
ONEWEB-0561             
1 56710U 23068A   26095.24399190 -.00000010  00000+0 -55721-4 0  9993
2 56710  87.9141 289.0069 0001937 104.8078 255.3270 13.20772229139870
ONEWEB-0668             
1 56711U 23068B   26095.16785387  .00000209  00000+0  51252-3 0  9994
2 56711  87.9057 243.2783 0001254  90.1533 269.9742 13.16595176142178
ONEWEB-0676             
1 56712U 23068C   26095.09975262  .00000092  00000+0  20759-3 0  9998
2 56712  87.9045 243.3014 0001723 112.2150 247.9164 13.16597064142088
ONEWEB-0677             
1 56713U 23068D   26095.08141879  .00000070  00000+0  13987-3 0  9998
2 56713  87.9138 289.0317 0001508  95.2915 264.8391 13.20772554140155
ONEWEB-0678             
1 56714U 23068E   26094.99283640 -.00000070  00000+0 -21975-3 0  9999
2 56714  87.8934 273.7956 0002010  96.4371 263.6988 13.15549991139660
ONEWEB-0679             
1 56715U 23068F   26095.13459774  .00000002  00000+0 -29155-4 0  9993
2 56715  87.9053 243.2827 0001229 110.7619 249.3644 13.16595497142116
ONEWEB-0680             
1 56716U 23068G   26095.20064027  .00000509  00000+0  11975-2 0  9995
2 56716  87.9192 258.5073 0001107  87.7130 272.4131 13.21976499141454
ONEWEB-0681             
1 56717U 23068H   26094.95358016 -.00000275  00000+0 -69862-3 0  9992
2 56717  87.9176 258.5619 0002002 127.9437 232.1878 13.21745950141418
ONEWEB-0682             
1 56718U 23068J   26095.24479751  .00001225  00000+0  32193-2 0  9996
2 56718  87.8925 273.7487 0001417  85.9105 274.2187 13.15563030139862
ONEWEB-0683             
1 56719U 23068K   26095.19248785  .00000108  00000+0  25301-3 0  9995
2 56719  87.8939 273.7555 0001490  88.0420 272.0881 13.15549947139823
